{
  "type": "FeatureCollection",
  "features": [
    {
      "type": "Feature",
      "properties": {
        "norad_id": 44333,
        "name": "AT&T T-16",
        "group": "intelsat",
        "lat": -0.030305338439483027,
        "lon": -88.35841316182345,
        "alt_km": 35788.55742712506,
        "timestamp": "2025-12-20T18:51:31.385820+00:00",
        "meta_object_name": "AT&T T-16",
        "meta_object_id": "2019-034A",
        "meta_epoch": "2025-12-20T05:59:17.333952",
        "meta_mean_motion": 1.00272894,
        "meta_eccentricity": 9.98e-05,
        "meta_inclination": 0.0237,
        "meta_ra_of_asc_node": 62.8934,
        "meta_arg_of_pericenter": 77.7615,
        "meta_mean_anomaly": 297.398,
        "meta_ephemeris_type": 0,
        "meta_classification_type": "U",
        "meta_norad_cat_id": 44333,
        "meta_element_set_no": 999,
        "meta_rev_at_epoch": 2383,
        "meta_bstar": 0,
        "meta_mean_motion_dot": -9.2e-07,
        "meta_mean_motion_ddot": 0,
        "tle_line1": "1 44333U 19034A   25354.24950618 -.00000092  00000+0  00000+0 0  9998",
        "tle_line2": "2 44333   0.0237  62.8934 0000998  77.7615 297.3980  1.00272894 23839"
      },
      "geometry": {
        "type": "Point",
        "coordinates": [
          -88.35841316182345,
          -0.030305338439483027
        ]
      }
    },
    {
      "type": "Feature",
      "properties": {
        "norad_id": 44476,
        "name": "INTELSAT 39 (IS-39)",
        "group": "intelsat",
        "lat": 0.01794689602910345,
        "lon": 74.42326186203094,
        "alt_km": 35784.122141030624,
        "timestamp": "2025-12-20T18:51:31.385832+00:00",
        "meta_object_name": "INTELSAT 39 (IS-39)",
        "meta_object_id": "2019-049B",
        "meta_epoch": "2025-12-20T15:10:42.639744",
        "meta_mean_motion": 1.00270595,
        "meta_eccentricity": 0.00010528,
        "meta_inclination": 0.0007,
        "meta_ra_of_asc_node": 40.5989,
        "meta_arg_of_pericenter": 93.1346,
        "meta_mean_anomaly": 245.3558,
        "meta_ephemeris_type": 0,
        "meta_classification_type": "U",
        "meta_norad_cat_id": 44476,
        "meta_element_set_no": 999,
        "meta_rev_at_epoch": 2333,
        "meta_bstar": 0,
        "meta_mean_motion_dot": 5.7e-07,
        "meta_mean_motion_ddot": 0,
        "tle_line1": "1 44476U 19049B   25354.63243796  .00000057  00000+0  00000+0 0  9997",
        "tle_line2": "2 44476   0.0007  40.5989 0001052  93.1346 245.3558  1.00270595 23335"
      },
      "geometry": {
        "type": "Point",
        "coordinates": [
          74.42326186203094,
          0.01794689602910345
        ]
      }
    },
    {
      "type": "Feature",
      "properties": {
        "norad_id": 46114,
        "name": "GALAXY 30 (G-30)",
        "group": "intelsat",
        "lat": -0.0373988853556979,
        "lon": -112.50412277549908,
        "alt_km": 35777.80793092592,
        "timestamp": "2025-12-20T18:51:31.385843+00:00",
        "meta_object_name": "GALAXY 30 (G-30)",
        "meta_object_id": "2020-056C",
        "meta_epoch": "2025-12-20T10:15:38.712960",
        "meta_mean_motion": 1.00273232,
        "meta_eccentricity": 0.00020273,
        "meta_inclination": 0.0119,
        "meta_ra_of_asc_node": 340.3742,
        "meta_arg_of_pericenter": 291.1216,
        "meta_mean_anomaly": 206.6944,
        "meta_ephemeris_type": 0,
        "meta_classification_type": "U",
        "meta_norad_cat_id": 46114,
        "meta_element_set_no": 999,
        "meta_rev_at_epoch": 1950,
        "meta_bstar": 0,
        "meta_mean_motion_dot": 6e-07,
        "meta_mean_motion_ddot": 0,
        "tle_line1": "1 46114U 20056C   25354.42753140  .00000060  00000+0  00000+0 0  9998",
        "tle_line2": "2 46114   0.0119 340.3742 0002027 291.1216 206.6944  1.00273232 19501"
      },
      "geometry": {
        "type": "Point",
        "coordinates": [
          -112.50412277549908,
          -0.0373988853556979
        ]
      }
    },
    {
      "type": "Feature",
      "properties": {
        "norad_id": 54026,
        "name": "GALAXY 33 (G-33)",
        "group": "intelsat",
        "lat": -0.021397268896093537,
        "lon": -120.52109715952398,
        "alt_km": 35780.46962473871,
        "timestamp": "2025-12-20T18:51:31.385855+00:00",
        "meta_object_name": "GALAXY 33 (G-33)",
        "meta_object_id": "2022-128A",
        "meta_epoch": "2025-12-20T12:35:49.747776",
        "meta_mean_motion": 1.00271284,
        "meta_eccentricity": 0.00015521,
        "meta_inclination": 0.0157,
        "meta_ra_of_asc_node": 42.0026,
        "meta_arg_of_pericenter": 226.8341,
        "meta_mean_anomaly": 236.48,
        "meta_ephemeris_type": 0,
        "meta_classification_type": "U",
        "meta_norad_cat_id": 54026,
        "meta_element_set_no": 999,
        "meta_rev_at_epoch": 1195,
        "meta_bstar": 0,
        "meta_mean_motion_dot": 1.03e-06,
        "meta_mean_motion_ddot": 0,
        "tle_line1": "1 54026U 22128A   25354.52488134  .00000103  00000+0  00000+0 0  9998",
        "tle_line2": "2 54026   0.0157  42.0026 0001552 226.8341 236.4800  1.00271284 11959"
      },
      "geometry": {
        "type": "Point",
        "coordinates": [
          -120.52109715952398,
          -0.021397268896093537
        ]
      }
    },
    {
      "type": "Feature",
      "properties": {
        "norad_id": 54027,
        "name": "GALAXY 34 (G-34)",
        "group": "intelsat",
        "lat": -0.042376500658565804,
        "lon": -116.46770764802127,
        "alt_km": 35780.22209726978,
        "timestamp": "2025-12-20T18:51:31.385866+00:00",
        "meta_object_name": "GALAXY 34 (G-34)",
        "meta_object_id": "2022-128B",
        "meta_epoch": "2025-12-20T12:57:25.874784",
        "meta_mean_motion": 1.00267896,
        "meta_eccentricity": 0.00017397,
        "meta_inclination": 0.0232,
        "meta_ra_of_asc_node": 10.5268,
        "meta_arg_of_pericenter": 252.6783,
        "meta_mean_anomaly": 251.5813,
        "meta_ephemeris_type": 0,
        "meta_classification_type": "U",
        "meta_norad_cat_id": 54027,
        "meta_element_set_no": 999,
        "meta_rev_at_epoch": 1212,
        "meta_bstar": 0,
        "meta_mean_motion_dot": 0,
        "meta_mean_motion_ddot": 0,
        "tle_line1": "1 54027U 22128B   25354.53988281  .00000000  00000+0  00000+0 0  9994",
        "tle_line2": "2 54027   0.0232  10.5268 0001739 252.6783 251.5813  1.00267896 12122"
      },
      "geometry": {
        "type": "Point",
        "coordinates": [
          -116.46770764802127,
          -0.042376500658565804
        ]
      }
    },
    {
      "type": "Feature",
      "properties": {
        "norad_id": 54243,
        "name": "GALAXY 31 (G-31)",
        "group": "intelsat",
        "lat": -0.013477975642959763,
        "lon": -108.52017435962232,
        "alt_km": 35781.06454063461,
        "timestamp": "2025-12-20T18:51:31.385877+00:00",
        "meta_object_name": "GALAXY 31 (G-31)",
        "meta_object_id": "2022-153A",
        "meta_epoch": "2025-12-20T12:39:19.412928",
        "meta_mean_motion": 1.00271126,
        "meta_eccentricity": 0.00013728,
        "meta_inclination": 0.0192,
        "meta_ra_of_asc_node": 82.2452,
        "meta_arg_of_pericenter": 196.0743,
        "meta_mean_anomaly": 239.8726,
        "meta_ephemeris_type": 0,
        "meta_classification_type": "U",
        "meta_norad_cat_id": 54243,
        "meta_element_set_no": 999,
        "meta_rev_at_epoch": 534,
        "meta_bstar": 0,
        "meta_mean_motion_dot": 3.7e-07,
        "meta_mean_motion_ddot": 0,
        "tle_line1": "1 54243U 22153A   25354.52730802  .00000037  00000+0  00000+0 0  9995",
        "tle_line2": "2 54243   0.0192  82.2452 0001372 196.0743 239.8726  1.00271126  5347"
      },
      "geometry": {
        "type": "Point",
        "coordinates": [
          -108.52017435962232,
          -0.013477975642959763
        ]
      }
    },
    {
      "type": "Feature",
      "properties": {
        "norad_id": 54244,
        "name": "GALAXY 32 (G-32)",
        "group": "intelsat",
        "lat": -0.03849376054120905,
        "lon": -78.52169531848483,
        "alt_km": 35779.79638013236,
        "timestamp": "2025-12-20T18:51:31.385889+00:00",
        "meta_object_name": "GALAXY 32 (G-32)",
        "meta_object_id": "2022-153B",
        "meta_epoch": "2025-12-19T12:21:45.204192",
        "meta_mean_motion": 1.00271304,
        "meta_eccentricity": 0.0001932,
        "meta_inclination": 0.0112,
        "meta_ra_of_asc_node": 8.1777,
        "meta_arg_of_pericenter": 310.6888,
        "meta_mean_anomaly": 223.9419,
        "meta_ephemeris_type": 0,
        "meta_classification_type": "U",
        "meta_norad_cat_id": 54244,
        "meta_element_set_no": 999,
        "meta_rev_at_epoch": 1134,
        "meta_bstar": 0,
        "meta_mean_motion_dot": -1.5e-06,
        "meta_mean_motion_ddot": 0,
        "tle_line1": "1 54244U 22153B   25353.51510653 -.00000150  00000+0  00000+0 0  9991",
        "tle_line2": "2 54244   0.0112   8.1777 0001932 310.6888 223.9419  1.00271304 11341"
      },
      "geometry": {
        "type": "Point",
        "coordinates": [
          -78.52169531848483,
          -0.03849376054120905
        ]
      }
    }
  ]
}